
# Worst residual: 9.84 km
# MJD 60461.000000 (2024 May 31  0:00)
2023-075B = NORAD 56758 = Falcon 9-228 Stage 2
1 56758U 23075B   24152.49919926  .00000000  00000-0  00000-0 0 23795
2 56758 028.0405 081.2777 8227083 287.4583 015.1514 01.22961416    00

# Worst residual: 10.27 km
# MJD 60462.000000 (2024 Jun  1  0:00)
2023-075B = NORAD 56758 = Falcon 9-228 Stage 2
1 56758U 23075B   24153.49919926  .00000000  00000-0  00000-0 0 23796
2 56758 028.0443 081.0799 8227268 287.7651 097.8048 01.22977438    08

# Worst residual: 10.42 km
# MJD 60463.000000 (2024 Jun  2  0:00)
2023-075B = NORAD 56758 = Falcon 9-228 Stage 2
1 56758U 23075B   24154.49919926  .00000000  00000-0  00000-0 0 23797
2 56758 028.0460 080.8874 8227495 288.0739 180.5089 01.22985533    01

# Worst residual: 12.54 km
# MJD 60464.000000 (2024 Jun  3  0:00)
2023-075B = NORAD 56758 = Falcon 9-228 Stage 2
1 56758U 23075B   24155.49919926  .00000000  00000-0  00000-0 0 23798
2 56758 028.0522 080.6658 8227784 288.4112 263.2676 01.23001679    00

# Worst residual: 12.01 km
# MJD 60465.000000 (2024 Jun  4  0:00)
2023-075B = NORAD 56758 = Falcon 9-228 Stage 2
1 56758U 23075B   24156.49919926  .00000000  00000-0  00000-0 0 23799
2 56758 028.0531 080.4679 8227595 288.7243 346.0826 01.23023332    06

# Worst residual: 10.87 km
# MJD 60466.000000 (2024 Jun  5  0:00)
2023-075B = NORAD 56758 = Falcon 9-228 Stage 2
1 56758U 23075B   24157.49919926  .00000000  00000-0  00000-0 0 23790
2 56758 028.0585 080.2573 8227536 289.0426 068.9550 01.23039124    08

# Worst residual: 10.36 km
# MJD 60467.000000 (2024 Jun  6  0:00)
2023-075B = NORAD 56758 = Falcon 9-228 Stage 2
1 56758U 23075B   24158.49919926  .00000000  00000-0  00000-0 0 23791
2 56758 028.0621 080.0563 8227612 289.3570 151.8633 01.23043113    01

# Worst residual: 11.58 km
# MJD 60468.000000 (2024 Jun  7  0:00)
2023-075B = NORAD 56758 = Falcon 9-228 Stage 2
1 56758U 23075B   24159.49919926  .00000000  00000-0  00000-0 0 23792
2 56758 028.0700 079.8344 8227634 289.6916 234.8006 01.23047343    08

# Worst residual: 12.12 km
# MJD 60469.000000 (2024 Jun  8  0:00)
2023-075B = NORAD 56758 = Falcon 9-228 Stage 2
1 56758U 23075B   24160.49919926  .00000000  00000-0  00000-0 0 23794
2 56758 028.0716 079.6395 8227561 289.9996 317.7877 01.23063730    04

# Worst residual: 10.56 km
# MJD 60470.000000 (2024 Jun  9  0:00)
2023-075B = NORAD 56758 = Falcon 9-228 Stage 2
1 56758U 23075B   24161.49919926  .00000000  00000-0  00000-0 0 23795
2 56758 028.0763 079.4298 8227473 290.3127 040.8206 01.23079067    00

# Worst residual: 12.05 km
# MJD 60471.000000 (2024 Jun 10  0:00)
2023-075B = NORAD 56758 = Falcon 9-228 Stage 2
1 56758U 23075B   24162.49919926  .00000000  00000-0  00000-0 0 23796
2 56758 028.0807 079.2347 8227936 290.6154 123.8856 01.23082847    02

# Worst residual: 11.12 km
# MJD 60472.000000 (2024 Jun 11  0:00)
2023-075B = NORAD 56758 = Falcon 9-228 Stage 2
1 56758U 23075B   24163.49919926  .00000000  00000-0  00000-0 0 23797
2 56758 028.0870 079.0215 8228087 290.9411 206.9778 01.23087983    03

# Worst residual: 11.51 km
# MJD 60473.000000 (2024 Jun 12  0:00)
2023-075B = NORAD 56758 = Falcon 9-228 Stage 2
1 56758U 23075B   24164.49919926  .00000000  00000-0  00000-0 0 23798
2 56758 028.0904 078.8161 8228752 291.2622 290.1112 01.23105832    06

# Worst residual: 9.81 km
# MJD 60474.000000 (2024 Jun 13  0:00)
2023-075B = NORAD 56758 = Falcon 9-228 Stage 2
1 56758U 23075B   24165.49919926  .00000000  00000-0  00000-0 0 23799
2 56758 028.0936 078.6080 8228871 291.5799 013.3048 01.23129373    08

# Worst residual: 10.15 km
# MJD 60475.000000 (2024 Jun 14  0:00)
2023-075B = NORAD 56758 = Falcon 9-228 Stage 2
1 56758U 23075B   24166.49919926  .00000000  00000-0  00000-0 0 23790
2 56758 028.0995 078.4017 8229276 291.8946 096.5625 01.23144700    03

# Worst residual: 9.66 km
# MJD 60476.000000 (2024 Jun 15  0:00)
2023-075B = NORAD 56758 = Falcon 9-228 Stage 2
1 56758U 23075B   24167.49919926  .00000000  00000-0  00000-0 0 23791
2 56758 028.1038 078.1993 8229553 292.2116 179.8750 01.23154438    07

# Worst residual: 12.01 km
# MJD 60477.000000 (2024 Jun 16  0:00)
2023-075B = NORAD 56758 = Falcon 9-228 Stage 2
1 56758U 23075B   24168.49919926  .00000000  00000-0  00000-0 0 23792
2 56758 028.1139 077.9695 8229480 292.5543 263.2469 01.23170924    04

# Worst residual: 11.14 km
# MJD 60478.000000 (2024 Jun 17  0:00)
2023-075B = NORAD 56758 = Falcon 9-228 Stage 2
1 56758U 23075B   24169.49919926  .00000000  00000-0  00000-0 0 23793
2 56758 028.1176 077.7652 8229033 292.8714 346.6834 01.23192787    06

# Worst residual: 10.89 km
# MJD 60479.000000 (2024 Jun 18  0:00)
2023-075B = NORAD 56758 = Falcon 9-228 Stage 2
1 56758U 23075B   24170.49919926  .00000000  00000-0  00000-0 0 23795
2 56758 028.1249 077.5532 8228935 293.1878 070.1890 01.23213004    04

# Worst residual: 11.88 km
# MJD 60480.000000 (2024 Jun 19  0:00)
2023-075B = NORAD 56758 = Falcon 9-228 Stage 2
1 56758U 23075B   24171.49919926  .00000000  00000-0  00000-0 0 23796
2 56758 028.1296 077.3586 8229118 293.4933 153.7379 01.23219904    07

# Worst residual: 11.73 km
# MJD 60481.000000 (2024 Jun 20  0:00)
2023-075B = NORAD 56758 = Falcon 9-228 Stage 2
1 56758U 23075B   24172.49919926  .00000000  00000-0  00000-0 0 23797
2 56758 028.1383 077.1369 8229239 293.8266 237.3178 01.23226972    07

# Worst residual: 11.73 km
# MJD 60482.000000 (2024 Jun 21  0:00)
2023-075B = NORAD 56758 = Falcon 9-228 Stage 2
1 56758U 23075B   24173.49919926  .00000000  00000-0  00000-0 0 23798
2 56758 028.1392 076.9494 8229467 294.1285 320.9455 01.23242674    05

# Worst residual: 10.84 km
# MJD 60483.000000 (2024 Jun 22  0:00)
2023-075B = NORAD 56758 = Falcon 9-228 Stage 2
1 56758U 23075B   24174.49919926  .00000000  00000-0  00000-0 0 23799
2 56758 028.1442 076.7445 8229718 294.4382 044.6201 01.23259231    01

# Worst residual: 11.22 km
# MJD 60484.000000 (2024 Jun 23  0:00)
2023-075B = NORAD 56758 = Falcon 9-228 Stage 2
1 56758U 23075B   24175.49919926  .00000000  00000-0  00000-0 0 23790
2 56758 028.1495 076.5462 8230235 294.7464 128.3266 01.23261410    09

# Worst residual: 11.40 km
# MJD 60485.000000 (2024 Jun 24  0:00)
2023-075B = NORAD 56758 = Falcon 9-228 Stage 2
1 56758U 23075B   24176.49919926  .00000000  00000-0  00000-0 0 23791
2 56758 028.1578 076.3295 8230280 295.0770 212.0598 01.23266923    00
